IRIDIUM 138             
1 43071U 17083B   26195.87503580  .00000136  00000+0  41507-4 0  9993
2 43071  86.3999 310.1412 0002054  91.8466 268.2965 14.34218577448105
IRIDIUM 116             
1 43072U 17083C   26195.84332267  .00000128  00000+0  38542-4 0  9999
2 43072  86.3985 310.4404 0002443  98.6620 261.4852 14.34217711448136
IRIDIUM 130             
1 43073U 17083D   26196.23022463  .00000136  00000+0  41425-4 0  9991
2 43073  86.3992 310.5567 0002258 100.4656 259.6794 14.34217962448133
IRIDIUM 151             
1 43074U 17083E   26195.85600954  .00000137  00000+0  41712-4 0  9996
2 43074  86.3986 310.4935 0002239  95.1945 264.9507 14.34218120448100
IRIDIUM 134             
1 43075U 17083F   26195.82429630  .00000082  00000+0  22126-4 0  9991
2 43075  86.3988 310.5152 0002209  95.1934 264.9514 14.34218054448069
IRIDIUM 137             
1 43076U 17083G   26195.83698229  .00000116  00000+0  34296-4 0  9994
2 43076  86.3990 310.6033 0002683  93.1369 267.0134 14.34218388448138
IRIDIUM 141             
1 43077U 17083H   26195.83063840  .00000077  00000+0  20539-4 0  9991
2 43077  86.3985 310.4349 0002172  93.1842 266.9603 14.34217662448133
IRIDIUM 153             
1 43078U 17083J   26196.20142825  .00000071  00000+0  18434-4 0  9990
2 43078  86.3959 278.7592 0002115  94.4881 265.6556 14.34217892449291
IRIDIUM 131             
1 43079U 17083K   26195.81795363  .00000090  00000+0  24944-4 0  9992
2 43079  86.3990 310.6280 0002199  93.5636 266.5811 14.34218250448064
IRIDIUM 144             
1 43249U 18030A   26196.20777120  .00000066  00000+0  16352-4 0  9996
2 43249  86.3957 278.6850 0002382  96.9076 263.2391 14.34217922434158
IRIDIUM 149             
1 43250U 18030B   26196.21411392  .00000100  00000+0  28494-4 0  9994
2 43250  86.3957 278.6490 0002260  93.1469 266.9985 14.34218068434173
IRIDIUM 157             
1 43251U 18030C   26196.23314400  .00000141  00000+0  43165-4 0  9996
2 43251  86.3960 278.6951 0002254  94.2199 265.9254 14.34218060434153
IRIDIUM 140             
1 43252U 18030D   26196.18240343  .00000149  00000+0  46104-4 0  9999
2 43252  86.3958 278.7288 0002236  95.7608 264.3843 14.34217667434201
IRIDIUM 145             
1 43253U 18030E   26196.16971517  .00000117  00000+0  34556-4 0  9995
2 43253  86.3957 278.7061 0002538 100.4826 259.6655 14.34217443434133
IRIDIUM 146             
1 43254U 18030F   26196.15068779  .00000071  00000+0  18311-4 0  9992
2 43254  86.3959 278.7264 0002370  96.3937 263.7529 14.34217599434140
IRIDIUM 148             
1 43255U 18030G   26196.18874654  .00000143  00000+0  44157-4 0  9990
2 43255  86.3960 278.7538 0002337  93.4085 266.7379 14.34218026434188
IRIDIUM 142             
1 43256U 18030H   26196.22679944  .00000083  00000+0  22655-4 0  9993
2 43256  86.3954 278.6259 0002440  96.9402 263.2071 14.34217987434150
IRIDIUM 150             
1 43257U 18030J   26196.19508456 -.00000181  00000+0 -71753-4 0  9993
2 43257  86.3956 278.7566 0002169  95.4767 264.6676 14.34216004434178
IRIDIUM 143             
1 43258U 18030K   26196.17605941  .00000075  00000+0  19591-4 0  9991
2 43258  86.3962 278.8579 0002329  97.4419 262.7041 14.34217497434100
IRIDIUM 161             
1 43478U 18047C   26196.17864654  .00000156  00000+0  40362-4 0  9991
2 43478  86.4462  76.7652 0002265  80.7989 279.3468 14.43275694429174
IRIDIUM 152             
1 43479U 18047D   26196.14877740  .00000142  00000+0  43749-4 0  9996
2 43479  86.3936  76.6390 0002164  83.7321 276.4121 14.34218388426492
IRIDIUM 147             
1 43480U 18047E   26196.15511858  .00000085  00000+0  23244-4 0  9998
2 43480  86.3939  76.6420 0002262  88.4126 271.7329 14.34217314426491
IRIDIUM 110             
1 43481U 18047F   26196.16146068  .00000156  00000+0  48526-4 0  9996
2 43481  86.3941  76.7320 0002118  77.5222 282.6210 14.34218629426480
IRIDIUM 162             
1 43482U 18047G   26196.17235166  .00000194  00000+0  51639-4 0  9997
2 43482  86.4460  76.6584 0002200  86.9927 273.1526 14.43278508429162
IRIDIUM 160             
1 43569U 18061A   26196.10729639  .00000130  00000+0  39202-4 0  9997
2 43569  86.3940  45.1185 0002234  86.8960 273.2491 14.34217044417371
IRIDIUM 166             
1 43570U 18061B   26196.13266786  .00000094  00000+0  26620-4 0  9990
2 43570  86.3938  45.0581 0002275  89.7839 270.3618 14.34217825417401
IRIDIUM 158             
1 43571U 18061C   26196.10095439  .00000077  00000+0  20376-4 0  9996
2 43571  86.3939  45.0812 0002072  86.5421 273.6011 14.34217835417366
IRIDIUM 165             
1 43572U 18061D   26196.12632543  .00000021  00000+0  40330-6 0  9995
2 43572  86.3938  45.1171 0002172  91.2513 268.8932 14.34217007417393
IRIDIUM 155             
1 43573U 18061E   26196.08826910  .00000092  00000+0  25831-4 0  9999
2 43573  86.3939  45.0015 0002101  88.8666 271.2771 14.34217703417352
IRIDIUM 154             
1 43574U 18061F   26196.06924132  .00000064  00000+0  15744-4 0  9994
2 43574  86.3940  45.1443 0002295  90.6663 269.4796 14.34217461417406
IRIDIUM 163             
1 43575U 18061G   26196.11998249  .00000039  00000+0  69620-5 0  9996
2 43575  86.3936  45.0373 0002107  85.6923 274.4513 14.34217279417385
